CIC_OEM_VERS = 2.0
CREATION_DATE =2021-21-06T14:01:12
ORIGINATOR = IONSAT TEAM

META_START

OBJECT_NAME =IONSAT
OBJECT_ID =IONSAT
CENTER_NAME =EARTH
REF_FRAME =ICRF
TIME_SYSTEM =UTC

META_STOP

2022-01-01T00:11:45 -5899.32143383805 313.943848032734 3751.38619316813 2.39609203442959 -5.76465554240211 4.24311117016299
2022-01-01T00:11:46 -5896.9219132381 308.179010047793 3755.62711827207 2.40294916547529 -5.76502042748081 4.23873903770719
2022-01-01T00:11:47 -5894.51553691073 302.413810528307 3759.8636687777 2.40980348926806 -5.76537861149004 4.23436197355325
2022-01-01T00:11:49 -5892.10230766717 296.648256175546 3764.09583975588 2.4166549978529 -5.76573009403325 4.22997998281033
2022-01-01T00:11:50 -5889.6822283266 290.882353691168 3768.32362628258 2.4235036832775 -5.76607487472102 4.22559307059314
2022-01-01T00:11:51 -5887.25530171617 285.116109777222 3772.54702343889 2.43034953759219 -5.76641295317113 4.221201242022
2022-01-01T00:11:52 -5884.82153067095 279.349531136133 3776.76602631101 2.43719255284997 -5.76674432900853 4.21680450222282
2022-01-01T00:11:52 -5882.38091803397 273.582624470696 3780.98062999029 2.44403272110646 -5.76706900186537 4.2124028563272
2022-01-01T00:11:53 -5879.9334666562 267.815396484072 3785.19082957319 2.4508700344199 -5.76738697138101 4.20799630947235
2022-01-01T00:11:54 -5877.47917939657 262.047853879781 3789.39662016132 2.45770448485114 -5.76769823720202 4.20358486680124
2022-01-01T00:11:56 -5875.01805912191 256.280003361689 3793.59799686146 2.46453606446362 -5.76800279898221 4.19916853346251
2022-01-01T00:11:57 -5872.55010870702 250.511851634006 3797.79495478549 2.47136476532337 -5.76830065638266 4.19474731461059
2022-01-01T00:11:58 -5870.07533103461 244.743405401279 3801.9874890505 2.478190579499 -5.76859180907171 4.19032121540568
2022-01-01T00:11:59 -5867.59372899533 238.974671368381 3806.17559477871 2.48501349906169 -5.76887625672498 4.18589024101379
2022-01-01T00:11:59 -5865.10530548775 233.205656240506 3810.35926709752 2.4918335160852 -5.76915399902543 4.18145439660679
2022-01-01T00:12:00 -5862.61006341839 227.436366723161 3814.5385011395 2.49865062264585 -5.76942503566333 4.17701368736239
2022-01-01T00:12:01 -5860.10800570165 221.666809522161 3818.71329204242 2.50546481082251 -5.76968936633633 4.17256811846422
2022-01-01T00:12:02 -5857.5991352599 215.896991343619 3822.8836349492 2.51227607269665 -5.76994699074944 4.16811769510185
2022-01-01T00:12:04 -5855.08345502337 210.126918893936 3827.04952500799 2.51908440035228 -5.77019790861508 4.1636624224708
2022-01-01T00:12:05 -5852.56096793026 204.356598879802 3831.21095737211 2.52588978587599 -5.77044211965312 4.15920230577256
2022-01-01T00:12:06 -5850.03167692664 198.58603800818 3835.3679272001 2.53269222135697 -5.77067962359089 4.15473735021467
2022-01-01T00:12:06 -5847.49558496652 192.815242986303 3839.52042965572 2.53949169888699 -5.77091042016318 4.1502675610107
2022-01-01T00:12:07 -5844.95269501179 187.044220521665 3843.66845990791 2.54628821056039 -5.77113450911234 4.1457929433803
2022-01-01T00:12:08 -5842.40301003228 181.272977322015 3847.81201313088 2.55308174847418 -5.77135189018824 4.14131350254923
2022-01-01T00:12:09 -5839.84653300568 175.501520095347 3851.95108450403 2.55987230472795 -5.77156256314835 4.13682924374937
2022-01-01T00:12:11 -5837.2832669176 169.729855549894 3856.08566921201 2.56665987142395 -5.77176652775772 4.13234017221876
2022-01-01T00:12:12 -5834.71321476155 163.95799039412 3860.21576244472 2.57344444066709 -5.77196378378908 4.1278462932016
2022-01-01T00:12:13 -5832.13637953894 158.185931336714 3864.3413593973 2.58022600456497 -5.77215433102281 4.12334761194834
2022-01-01T00:12:14 -5829.55276425904 152.413685086579 3868.46245527013 2.58700455522789 -5.77233816924701 4.11884413371561
2022-01-01T00:12:14 -5826.96237193904 146.641258352827 3872.57904526887 2.59378008476887 -5.77251529825751 4.11433586376632
2022-01-01T00:12:15 -5824.36520560401 140.868657844769 3876.69112460444 2.6005525853037 -5.77268571785794 4.10982280736964
2022-01-01T00:12:16 -5821.76126828688 135.095890271911 3880.79868849302 2.60732204895095 -5.7728494278597 4.10530496980103
2022-01-01T00:12:17 -5819.15056302849 129.32296234394 3884.90173215609 2.61408846783199 -5.77300642808207 4.10078235634226
2022-01-01T00:12:19 -5816.53309287754 123.549880770723 3889.00025082041 2.62085183407105 -5.77315671835217 4.09625497228141
2022-01-01T00:12:20 -5813.9088608906 117.776652262294 3893.094239718 2.62761213979523 -5.77330029850506 4.09172282291294
2022-01-01T00:12:21 -5811.27787013214 112.00328352885 3897.18369408623 2.63436937713454 -5.77343716838372 4.08718591353761
2022-01-01T00:12:21 -5808.64012367446 106.229781280738 3901.26860916773 2.64112353822193 -5.77356732783912 4.08264424946258
2022-01-01T00:12:22 -5805.99562459776 100.456152228453 3905.34898021046 2.64787461519337 -5.77369077673022 4.07809783600137
2022-01-01T00:12:23 -5803.34437599006 94.6824030826263 3909.4248024677 2.65462260018781 -5.77380751492404 4.07354667847391
2022-01-01T00:12:24 -5800.6863809473 88.9085405540165 3913.49607119804 2.66136748534731 -5.77391754229566 4.06899078220648
2022-01-01T00:12:26 -5798.02164257322 83.1345713535045 3917.56278166541 2.66810926281699 -5.77402085872825 4.0644301525318
2022-01-01T00:12:27 -5795.35016397943 77.3605021920838 3921.62492913907 2.67484792474517 -5.77411746411314 4.05986479478897
2022-01-01T00:12:28 -5792.67194828542 71.5863397808523 3925.68250889362 2.68158346328334 -5.77420735834981 4.05529471432348
2022-01-01T00:12:29 -5789.98699861849 65.8120908310044 3929.73551620903 2.68831587058622 -5.77429054134593 4.05071991648725
2022-01-01T00:12:29 -5787.29531811379 60.0377620538228 3933.78394637059 2.69504513881184 -5.77436701301738 4.04614040663859
2022-01-01T00:12:30 -5784.59690991432 54.2633601606699 3937.82779466898 2.70177126012155 -5.7744367732883 4.04155619014219
2022-01-01T00:12:31 -5781.89177717092 48.4888918629803 3941.86705640024 2.70849422668008 -5.77449982209109 4.03696727236917
2022-01-01T00:12:33 -5779.17992304225 42.7143638722515 3945.90172686577 2.7152140306556 -5.77455615936646 4.03237365869701
2022-01-01T00:12:34 -5776.46135069481 36.9397829000365 3949.93180137238 2.72193066421973 -5.77460578506344 4.02777535450957
2022-01-01T00:12:35 -5773.73606330293 31.1651556579351 3953.95727523223 2.72864411954767 -5.77464869913938 4.02317236519708
2022-01-01T00:12:36 -5771.00406404875 25.3904888575854 3957.9781437629 2.73535438881814 -5.77468490156001 4.01856469615614
2022-01-01T00:12:36 -5768.26535612223 19.6157892106557 3961.99440228738 2.74206146421352 -5.77471439229946 4.01395235278966
2022-01-01T00:12:37 -5765.51994272117 13.8410634288358 3966.00604613403 2.74876533791986 -5.77473717134024 4.00933534050691
2022-01-01T00:12:38 -5762.76782705114 8.06631822382908 3970.01307063664 2.75546600212694 -5.77475323867328 4.00471366472345
2022-01-01T00:12:39 -5760.00901232556 2.29156030734347 3974.01547113443 2.7621634490283 -5.77476259429795 4.00008733086115
2022-01-01T00:12:41 -5757.24350176564 -3.48320360891655 3978.01324297204 2.76885767082133 -5.77476523822209 3.99545634434812
2022-01-01T00:12:42 -5754.47129860038 -9.25796681325857 3982.00638149952 2.77554865970729 -5.77476117046197 3.99082071061876
2022-01-01T00:12:43 -5751.69240606658 -15.0327225940107 3985.99488207239 2.78223640789136 -5.77475039104236 3.98618043511367
2022-01-01T00:12:44 -5748.90682740884 -20.8074642395302 3989.97874005158 2.78892090758271 -5.77473289999651 3.98153552327966
2022-01-01T00:12:44 -5746.11456587955 -26.5821850382115 3993.95795080351 2.79560215099451 -5.77470869736617 3.97688598056974
2022-01-01T00:12:45 -5743.31562473888 -32.3568782784954 3997.93250970002 2.80228013034402 -5.77467778320158 3.97223181244305
2022-01-01T00:12:46 -5740.51000725478 -38.1315372488769 4001.90241211842 2.80895483785262 -5.77464015756151 3.96757302436486
2022-01-01T00:12:48 -5737.69771670298 -43.9061552379143 4005.8676534415 2.81562626574586 -5.77459582051321 3.96290962180654
2022-01-01T00:12:49 -5734.87875636698 -49.6807255342371 4009.82822905753 2.8222944062535 -5.77454477213248 3.95824161024553
2022-01-01T00:12:50 -5732.05312953805 -55.4552414265552 4013.78413436024 2.82895925160956 -5.77448701250362 3.95356899516531
2022-01-01T00:12:51 -5729.22083951522 -61.2296962036667 4017.73536474885 2.83562079405234 -5.77442254171947 3.94889178205536
2022-01-01T00:12:51 -5726.38188960528 -67.0040831544671 4021.68191562808 2.84227902582453 -5.77435135988135 3.94420997641114
2022-01-01T00:12:52 -5723.53628312278 -72.7783955679574 4025.62378240815 2.84893393917318 -5.77427346709915 3.93952358373404
2022-01-01T00:12:53 -5720.68402339002 -78.5526267332526 4029.56096050479 2.85558552634978 -5.77418886349122 3.93483260953136
2022-01-01T00:12:54 -5717.82511373704 -84.3267699395904 4033.49344533921 2.86223377961028 -5.77409754918446 3.93013705931629
2022-01-01T00:12:56 -5714.95955750163 -90.1008184763398 4037.42123233817 2.86887869121516 -5.77399952431425 3.92543693860783
2022-01-01T00:12:57 -5712.08735802931 -95.8747656330092 4041.34431693394 2.87552025342943 -5.77389478902447 3.92073225293082
2022-01-01T00:12:58 -5709.20851867333 -101.648604699255 4045.26269456432 2.88215845852269 -5.7737833434675 3.91602300781584
2022-01-01T00:12:58 -5706.32304279469 -107.422328964891 4049.17636067262 2.88879329876918 -5.77366518780418 3.9113092087992
2022-01-01T00:12:59 -5703.43093376208 -113.195931719895 4053.08531070773 2.89542476644776 -5.77354032220383 3.90659086142292
2022-01-01T00:13:00 -5700.53219495193 -118.969406254419 4056.98954012406 2.902052853842 -5.77340874684423 3.90186797123467
2022-01-01T00:13:01 -5697.62682974839 -124.742745858797 4060.88904438157 2.90867755324018 -5.77327046191159 3.89714054378775
2022-01-01T00:13:03 -5694.7148415433 -130.515943823553 4064.78381894579 2.91529885693536 -5.77312546760058 3.89240858464105
2022-01-01T00:13:04 -5691.79623373622 -136.28899343941 4068.67385928779 2.92191675722533 -5.77297376411426 3.88767209935898
